{
  "type": "FeatureCollection",
  "features": [
    {
      "type": "Feature",
      "properties": {
        "norad_id": 66174,
        "name": "HTV-X1",
        "group": "stations",
        "lat": -20.09966557964394,
        "lon": 74.89547271576242,
        "alt_km": 418.94053015997724,
        "timestamp": "2025-12-22T23:36:19.445054+00:00",
        "meta_object_name": "HTV-X1",
        "meta_object_id": "2025-241A",
        "meta_epoch": "2025-12-22T12:53:01.598784",
        "meta_mean_motion": 15.49728746,
        "meta_eccentricity": 0.00031539,
        "meta_inclination": 51.6324,
        "meta_ra_of_asc_node": 93.9618,
        "meta_arg_of_pericenter": 285.9755,
        "meta_mean_anomaly": 74.0886,
        "meta_ephemeris_type": 0,
        "meta_classification_type": "U",
        "meta_norad_cat_id": 66174,
        "meta_element_set_no": 999,
        "meta_rev_at_epoch": 51,
        "meta_bstar": 0.00021249665,
        "meta_mean_motion_dot": 0.00011576,
        "meta_mean_motion_ddot": 0,
        "tle_line1": "1 66174U 25241A   25356.53682406  .00011576  00000+0  21250-3 0  9995",
        "tle_line2": "2 66174  51.6324  93.9618 0003153 285.9755  74.0886 15.49728746   518"
      },
      "geometry": {
        "type": "Point",
        "coordinates": [
          74.89547271576242,
          -20.09966557964394
        ]
      }
    },
    {
      "type": "Feature",
      "properties": {
        "norad_id": 66515,
        "name": "SZ-21 MODULE",
        "group": "stations",
        "lat": 16.103693658124598,
        "lon": 114.45633603591563,
        "alt_km": 379.5971609333883,
        "timestamp": "2025-12-22T23:36:19.445063+00:00",
        "meta_object_name": "SZ-21 MODULE",
        "meta_object_id": "2025-246C",
        "meta_epoch": "2025-12-22T06:04:32.826144",
        "meta_mean_motion": 15.62957896,
        "meta_eccentricity": 0.00052091,
        "meta_inclination": 41.4776,
        "meta_ra_of_asc_node": 317.9924,
        "meta_arg_of_pericenter": 311.1717,
        "meta_mean_anomaly": 48.8673,
        "meta_ephemeris_type": 0,
        "meta_classification_type": "U",
        "meta_norad_cat_id": 66515,
        "meta_element_set_no": 999,
        "meta_rev_at_epoch": 593,
        "meta_bstar": 0.00031521047,
        "meta_mean_motion_dot": 0.00029176,
        "meta_mean_motion_ddot": 0,
        "tle_line1": "1 66515U 25246C   25356.25315771  .00029176  00000+0  31521-3 0  9993",
        "tle_line2": "2 66515  41.4776 317.9924 0005209 311.1717  48.8673 15.62957896  5937"
      },
      "geometry": {
        "type": "Point",
        "coordinates": [
          114.45633603591563,
          16.103693658124598
        ]
      }
    },
    {
      "type": "Feature",
      "properties": {
        "norad_id": 66645,
        "name": "SHENZHOU-22",
        "group": "stations",
        "lat": 33.74481811473123,
        "lon": 85.34342602333251,
        "alt_km": 377.99062775973835,
        "timestamp": "2025-12-22T23:36:19.445073+00:00",
        "meta_object_name": "SHENZHOU-22",
        "meta_object_id": "2025-272A",
        "meta_epoch": "2025-12-22T13:51:36.698976",
        "meta_mean_motion": 15.59570921,
        "meta_eccentricity": 0.00078575,
        "meta_inclination": 41.4686,
        "meta_ra_of_asc_node": 316.9649,
        "meta_arg_of_pericenter": 117.6887,
        "meta_mean_anomaly": 242.475,
        "meta_ephemeris_type": 0,
        "meta_classification_type": "U",
        "meta_norad_cat_id": 66645,
        "meta_element_set_no": 999,
        "meta_rev_at_epoch": 26550,
        "meta_bstar": 0.00022463103,
        "meta_mean_motion_dot": 0.00018108,
        "meta_mean_motion_ddot": 0,
        "tle_line1": "1 66645U 25272A   25356.57750809  .00018108  00000+0  22463-3 0  9994",
        "tle_line2": "2 66645  41.4686 316.9649 0007857 117.6887 242.4750 15.59570921265507"
      },
      "geometry": {
        "type": "Point",
        "coordinates": [
          85.34342602333251,
          33.74481811473123
        ]
      }
    },
    {
      "type": "Feature",
      "properties": {
        "norad_id": 66664,
        "name": "SOYUZ-MS 28",
        "group": "stations",
        "lat": -20.09966417427781,
        "lon": 74.89547403322987,
        "alt_km": 418.9405300896342,
        "timestamp": "2025-12-22T23:36:19.445083+00:00",
        "meta_object_name": "SOYUZ-MS 28",
        "meta_object_id": "2025-275A",
        "meta_epoch": "2025-12-22T12:53:01.598784",
        "meta_mean_motion": 15.49728746,
        "meta_eccentricity": 0.00031539,
        "meta_inclination": 51.6324,
        "meta_ra_of_asc_node": 93.9618,
        "meta_arg_of_pericenter": 285.9755,
        "meta_mean_anomaly": 74.0886,
        "meta_ephemeris_type": 0,
        "meta_classification_type": "U",
        "meta_norad_cat_id": 66664,
        "meta_element_set_no": 999,
        "meta_rev_at_epoch": 128,
        "meta_bstar": 0.00021249665,
        "meta_mean_motion_dot": 0.00011576,
        "meta_mean_motion_ddot": 0,
        "tle_line1": "1 66664U 25275A   25356.53682406  .00011576  00000+0  21250-3 0  9996",
        "tle_line2": "2 66664  51.6324  93.9618 0003153 285.9755  74.0886 15.49728746  1287"
      },
      "geometry": {
        "type": "Point",
        "coordinates": [
          74.89547403322987,
          -20.09966417427781
        ]
      }
    },
    {
      "type": "Feature",
      "properties": {
        "norad_id": 66906,
        "name": "1998-067XS",
        "group": "stations",
        "lat": 35.450295405862626,
        "lon": 125.933153659521,
        "alt_km": 410.59790319458625,
        "timestamp": "2025-12-22T23:36:19.445094+00:00",
        "meta_object_name": "1998-067XS",
        "meta_object_id": "1998-067XS",
        "meta_epoch": "2025-12-22T11:01:48.942336",
        "meta_mean_motion": 15.51071617,
        "meta_eccentricity": 0.00028954,
        "meta_inclination": 51.6319,
        "meta_ra_of_asc_node": 94.197,
        "meta_arg_of_pericenter": 250.8689,
        "meta_mean_anomaly": 109.1987,
        "meta_ephemeris_type": 0,
        "meta_classification_type": "U",
        "meta_norad_cat_id": 66906,
        "meta_element_set_no": 999,
        "meta_rev_at_epoch": 312,
        "meta_bstar": 0.00051361561,
        "meta_mean_motion_dot": 0.00030106,
        "meta_mean_motion_ddot": 0,
        "tle_line1": "1 66906U 98067XS  25356.45959424  .00030106  00000+0  51362-3 0  9999",
        "tle_line2": "2 66906  51.6319  94.1970 0002895 250.8689 109.1987 15.51071617  3121"
      },
      "geometry": {
        "type": "Point",
        "coordinates": [
          125.933153659521,
          35.450295405862626
        ]
      }
    },
    {
      "type": "Feature",
      "properties": {
        "norad_id": 66907,
        "name": "1998-067XT",
        "group": "stations",
        "lat": 47.98604504458428,
        "lon": -150.1107980119994,
        "alt_km": 404.9193812691037,
        "timestamp": "2025-12-22T23:36:19.445104+00:00",
        "meta_object_name": "1998-067XT",
        "meta_object_id": "1998-067XT",
        "meta_epoch": "2025-12-22T07:41:32.890848",
        "meta_mean_motion": 15.52583192,
        "meta_eccentricity": 0.00038425,
        "meta_inclination": 51.6311,
        "meta_ra_of_asc_node": 94.7687,
        "meta_arg_of_pericenter": 286.1212,
        "meta_mean_anomaly": 73.9355,
        "meta_ephemeris_type": 0,
        "meta_classification_type": "U",
        "meta_norad_cat_id": 66907,
        "meta_element_set_no": 999,
        "meta_rev_at_epoch": 310,
        "meta_bstar": 0.0011084243,
        "meta_mean_motion_dot": 0.00069527,
        "meta_mean_motion_ddot": 0,
        "tle_line1": "1 66907U 98067XT  25356.32051957  .00069527  00000+0  11084-2 0  9995",
        "tle_line2": "2 66907  51.6311  94.7687 0003842 286.1212  73.9355 15.52583192  3104"
      },
      "geometry": {
        "type": "Point",
        "coordinates": [
          -150.1107980119994,
          47.98604504458428
        ]
      }
    },
    {
      "type": "Feature",
      "properties": {
        "norad_id": 66908,
        "name": "1998-067XU",
        "group": "stations",
        "lat": 45.77029433682012,
        "lon": -143.01914810129702,
        "alt_km": 404.96794466149004,
        "timestamp": "2025-12-22T23:36:19.445113+00:00",
        "meta_object_name": "1998-067XU",
        "meta_object_id": "1998-067XU",
        "meta_epoch": "2025-12-22T12:18:16.541280",
        "meta_mean_motion": 15.52707663,
        "meta_eccentricity": 0.00038713,
        "meta_inclination": 51.631,
        "meta_ra_of_asc_node": 93.8007,
        "meta_arg_of_pericenter": 283.9304,
        "meta_mean_anomaly": 76.1255,
        "meta_ephemeris_type": 0,
        "meta_classification_type": "U",
        "meta_norad_cat_id": 66908,
        "meta_element_set_no": 999,
        "meta_rev_at_epoch": 313,
        "meta_bstar": 0.0010107547,
        "meta_mean_motion_dot": 0.00063598,
        "meta_mean_motion_ddot": 0,
        "tle_line1": "1 66908U 98067XU  25356.51269145  .00063598  00000+0  10108-2 0  9995",
        "tle_line2": "2 66908  51.6310  93.8007 0003871 283.9304  76.1255 15.52707663  3137"
      },
      "geometry": {
        "type": "Point",
        "coordinates": [
          -143.01914810129702,
          45.77029433682012
        ]
      }
    }
  ]
}